,name,a,e,i,om,w,q,ad,per_y,data_arc,condition_code,n_obs_used,H,neo,pha,diameter,extent,albedo,rot_per,GM,BV,UB,IR,spec_B,spec_T,G,moid,class,n,per,ma
551,Sigelinde,3.150815004805208,0.08936239336638276,7.698919469885693,266.9304397150203,348.3916646433576,2.869250634921104,3.432379374689313,5.59297090056398,41940,0,2733,9.6,N,N,88.697,,0.036,17.156,,,,,,,,1.85447,MBA,0.1762258915504405,2042.832621430992,331.4416152541509
552,Kundry,2.230630075581401,0.1100577253498839,5.389819344513493,72.37304480848807,354.3392668144689,1.985132003365873,2.47612814779693,3.33157452445808,41871,0,2440,12.2,N,N,9.010,,0.287,12.605,,,,,S,,,0.998781,MBA,0.2958439849181764,1216.857595058313,127.0223184677253
553,Peraga,2.374422896352189,0.1533181433390209,2.934718779981087,295.4199202089146,127.2237826450723,2.010380786381811,2.738465006322567,3.65885593262971,44925,0,2661,9.2,N,N,95.87,,0.0496,13.7128,,0.676,0.342,,Ch,FC,,1.02485,MBA,0.2693810036568354,1336.397129393,125.207374314232
554,Norma,3.189969811523312,0.1496091190884847,2.646050972172461,130.4005000147205,356.9696205174164,2.71272123810245,3.667218384944174,5.69754890864158,41855,0,2792,10.8,N,N,31.040,,0.119,19.508,,,,,B,,,1.72827,MBA,0.1729912808423002,2081.029738881337,87.1667286555423
555,Phyllis,2.464368610912209,0.1036824877936372,5.246060480168972,286.0392261348494,178.0255216347344,2.208856742492281,2.719880479332136,3.86871471158832,40964,0,2318,9.56,N,N,36.279,,0.201,4.293,,0.849,0.41,,S,S,,1.22591,MBA,0.2547684067825469,1413.048048407633,195.1726197041565
556,Violetta,2.442712180371975,0.09956046563992846,2.489614863012981,292.7900204526741,194.886903552449,2.199514618269816,2.685909742474134,3.81783055363838,41745,0,2894,12.1,N,N,22.621,,0.084,5.0887,,,,,,,,1.21511,MBA,0.2581639676041301,1394.462609716418,338.3583321879965
557,Carmen,2.906837659165655,0.04260685320012339,8.375863514386394,143.7117562577217,311.2648170192595,2.782986453744994,3.030688864586316,4.95609211043823,41728,0,2956,9.09,N,N,54.811,,0.131,11.387,,0.733,0.278,,,M,,1.80799,MBA,0.1988716636827006,1810.212643337562,56.11208205950862
558,Nanon,2.711723554491615,0.06578706720317955,9.301365247612775,112.0682093935848,128.5033510166549,2.53332721477583,2.890119894207399,4.46556404606697,41875,0,3988,9.5,N,N,79.82,,0.05,10.059,,0.733,0.379,,Xk,C,,1.53101,MBA,0.2207170859492302,1631.047267825962,150.1487228747905
559,Delila,2.749918156005148,0.1610655275929233,8.469424072166097,105.3366388590783,3.777720462641105,2.30700113737082,3.192835174639475,4.5602416296657,41695,0,2427,11,N,N,35.334,,0.062,29.913,,,,,B,,,1.32405,MBA,0.2161346620222424,1665.628255235398,43.64085800270534
560,Ingwelde,3.180817767084812,0.1177237569859103,1.543533025878641,159.3338858197525,317.2876321108059,2.806359949256054,3.55527558491357,5.67304704555993,41841,0,2495,11.21,N,N,31.562,,0.058,12.012,,0.745,,,,XCU,,1.82318,MBA,0.1737384293576355,2072.080433390764,138.9745015223091
561,Salome,3.018804125455015,0.1011319207009542,11.1047421088591,70.59876853650262,263.5918117912539,2.713506666027785,3.324101584882245,5.24518251126161,41676,0,2336,9.95,N,N,32.651,,0.158,6.351,,0.794,0.415,,,S,,1.73138,MBA,0.1879107697875866,1915.802912238304,141.8665778982702
562,Suleika,2.712400824626763,0.2358063343710505,10.24300772461095,85.18645411874652,336.9407841164804,2.072799528826511,3.352002120427014,4.4672371048818,40885,0,2244,8.5,N,N,53.29,,0.2477,5.69,,0.887,0.471,,Sl,S,,1.09018,MBA,0.2206344235210762,1631.658352558076,324.9966254751874
563,Dudu,2.746319680058788,0.2776801547236676,17.9937392211268,70.76609749611792,214.9242892336856,1.983721206379411,3.508918153738166,4.5512934268612,41776,0,2596,10.43,N,N,52.010,,0.05,8.882,,0.731,0.312,,Xc,CDX:,,0.990992,MBA,0.2165595998602302,1662.359924161052,323.4124600174683
564,Marbachia,2.442970995429215,0.129382392755234,10.99691749464666,225.8097745287576,291.7288123427021,2.126893562608948,2.759048428249483,3.81843734117623,41639,0,2550,10.88,N,N,27.332,,0.105,4.587,,0.811,0.422,,,S,,1.16243,MBA,0.2581229427910276,1394.684238864619,10.89514085736762
565,Stereoskopia,3.376077736359928,0.1193414287451664,4.89476584853178,79.55114053016833,299.5207615740143,2.973171795747987,3.778983676971869,6.20335819873848,41788,0,2780,8.1,N,N,167.381,,0.039,12.103,,0.712,0.291,,,C,,1.97895,OMB,0.1588859214301044,2265.776582089231,335.1192941863534
566,Eleutheria,3.134980586607264,0.09048712056996988,9.255421317956042,58.27055338049554,133.6467439593258,2.851305220282418,3.418655952932111,5.55086270934604,41794,0,2751,9.16,N,N,93.41,,0.0439,7.717,,0.652,0.309,,,CFB:,,1.85944,MBA,0.1775627204232682,2027.452604588642,238.5021243610259
567,Cheruskia,2.882455898565826,0.1682244518765495,18.39400901447983,249.7853964532539,174.1863897352084,2.397556334971263,3.367355462160389,4.89386752796631,41206,0,2395,9.5,N,N,71.224,,0.056,13.209,,,,,,,,1.41166,MBA,0.201400278559878,1787.485114589695,5.810152401150525
568,Misa,2.657419587456237,0.1812476149203875,1.291436022902227,301.6872093284616,142.7757290436121,2.175768625387073,3.139070549525399,4.33209927046797,40253,0,2756,10.12,N,N,72.95,,0.0297,11.595,,0.716,0.335,,Cg,C,,1.19204,MBA,0.2275170123839486,1582.299258538427,359.4543025324332
569,Kythera,3.421758548603211,0.1185422595882034,1.817008038881136,223.3642403138559,160.8501528715476,3.016135558486535,3.827381538719887,6.32968712775001,41730,0,3320,8.81,N,N,87.486,,0.069,8.12,,0.775,0.374,,T,ST,,2.01916,OMB,0.1557148502722144,2311.918223410693,275.5613377576793
570,Dulcinea,2.408931987607567,0.2439456810948211,5.227982232149381,3.179812162836452,27.57854966613444,1.821283433179538,2.996580542035596,3.73890998962893,41519,0,2689,11.59,N,N,11.696,,0.298,126.3,,0.867,0.437,,S,S,,0.827709,MBA,0.2636132686000753,1365.636873711967,108.754882382075
571,Rebekka,2.400130093178312,0.1576204837640884,10.57900375561392,194.5621166619134,191.935715525656,2.021820426794799,2.778439759561824,3.71843655293707,41605,0,2369,10.94,N,N,28.903,,0.089,5.6497,,0.691,0.308,,C,XDC,,1.0259,MBA,0.265064703763479,1358.158950960265,178.0441610820572
572,Recha,3.01774562663229,0.1117717141178441,9.817943527753318,342.8336201962183,28.79647385889538,2.680447025171971,3.355044228092608,5.24242403510481,41608,0,2448,9.4,N,N,47.582,,0.1,7.16633,,,,,,,,1.68315,MBA,0.1880096453029196,1914.795378822033,244.2453738837843
573,Reginhild,2.253448530473361,0.2390921446273711,5.680974222189686,336.7649582229657,76.77917437215383,1.714666688515087,2.792230372431634,3.38282605473253,41608,0,1810,12.3,N,N,8.456,,0.298,14.339,,,,,,S,,0.736039,MBA,0.291361798514197,1235.577216491058,181.3297726706581
574,Renate,2.555458337238746,0.1272466414601524,15.00157761021839,349.6236550851811,333.5870743819701,2.23028484643377,2.880631828043723,4.08518199887917,41680,0,2529,10.8,N,N,19.106,,0.211,3.676,,,,,,,,1.22754,MBA,0.2412686346992562,1492.112725090618,322.2919124588717
575,Emanuela,2.988401342848663,0.1917050200668997,10.20368730053928,299.6144617863398,26.97915566374247,2.41550980344991,3.561292882247416,5.1661449416326,34935,0,2785,9.3,N,N,74.378,,0.055,20.404,,,,,,,,1.40739,MBA,0.1907856427768129,1886.934439931308,18.57538459146324
576,Rhea,3.110597575228062,0.1554920635683376,5.297232985158963,328.5598339314014,330.5736818689422,2.626924339325183,3.594270811130941,5.4862291827545,41601,0,2784,9.4,N,N,38.234,,0.23,12.249,,,,,,,,1.61223,MBA,0.1796545952665977,2003.84520900108,285.1743356914498
577,Happelia,2.750585066060953,0.1923511459634917,6.150198440995132,29.40143604227043,261.1973036081691,2.221506876534062,3.279663255587844,4.56190065470498,41636,0,2860,9.4,N,N,69.29,,0.0769,10.061,,,,,Xc,,,1.21505,MBA,0.2160560603946993,1666.234214130992,56.71676039202827
578,Sidonia,3.012229604315845,0.07792992082929634,11.01926068556351,82.64888605225524,228.2381343542407,2.777486789731849,3.246972418899842,5.22805696446816,41189,0,2538,7.85,N,N,85.57,,0.1748,16.286,,0.818,0.418,,K,S,,1.77546,MBA,0.1885263091175638,1909.547806271995,350.0556657115249
579,Selene,3.230869126988435,0.08572336039551785,3.670773578819621,98.91140536618704,337.8546802776423,2.953908168424853,3.507830085552016,5.80747370167037,41591,0,2673,10.2,N,N,48.204,,0.082,9.47,,,,,,,,1.96954,OMB,0.1697168741520202,2121.179769535101,211.3558056406841
580,Tauntonia,3.210464468591018,0.03394337247791129,21.89759190523179,102.4532243897246,26.82860894509658,3.101490477306533,3.319438459875502,5.75254472524116,41526,0,2236,9.7,N,N,61.481,,0.031,16.54,,,,,Xk,,,2.12574,OMB,0.1713374394192541,2101.116960894333,197.6277514880496
581,Olympia,2.610292630541821,0.2224947754338657,30.02997727775876,155.7073785741823,310.3673157340623,2.029516157892744,3.191069103190899,4.21737285280571,41555,0,3683,9.11,N,N,44.347,,0.218,36.312,,0.891,0.534,,,S,,1.11967,MBA,0.2337062237008153,1540.395434487285,321.2473621982609
582,Klotilde,3.172932433499129,0.1605709890506291,8.244006399915948,257.8571896122024,252.275647119514,2.663451534461355,3.682413332536904,5.65196466859378,41557,0,2781,9.01,N,N,78.236,,0.072,9.2135,,0.664,0.306,,,C,,1.68992,MBA,0.1743864905674971,2064.380095203879,263.3391110786279
583,Semiramis,2.373760012395558,0.2334708535447488,10.72379873475867,282.0352540353755,85.45546631431827,1.819556236191173,2.927963788599942,3.65732383764283,41390,0,1988,8.71,N,N,54.01,,0.1987,5.068,,0.916,0.521,,Sl,S,0.24,0.854859,MBA,0.2694938504550907,1335.837531699045,75.52086562164985
584,Bilkis,2.430994752144621,0.1283614448923816,7.566758853454266,180.2862790399322,328.8557521467694,2.118948753233541,2.743040751055702,3.79039293811447,41346,0,2913,10.4,N,N,49.761,,0.049,8.577,,0.702,0.32,,,C,,1.13382,MBA,0.2600327458023007,1384.441020646311,320.68128960232
585,Thekla,3.045642509346893,0.06155855151836415,1.62804299591302,228.4105125125747,252.8778060996685,2.858157168028742,3.233127850665043,5.31528542336865,41482,0,3102,9.21,N,N,95.203,,0.04,13.67,,0.66,0.372,,Ch,C:,,1.87488,MBA,0.1854324283385143,1941.408000885398,141.9129864586304
